STARLINK-36575
1 67569U 26016J   26092.83335647  .00029472  00000+0  54258-3 0  9996
2 67569  97.2839 154.4330 0001214  84.3231  95.7922 15.49133552  5931
